NORAD_CAT_ID,OBJECT_NAME,OBJECT_TYPE,EPOCH,MEAN_MOTION,ECCENTRICITY,INCLINATION,RA_OF_ASC_NODE,ARG_OF_PERICENTER,MEAN_ANOMALY,BSTAR,MEAN_MOTION_DOT,MEAN_MOTION_DDOT,TLE_LINE0,TLE_LINE1,TLE_LINE2,SEMIMAJOR_AXIS,PERIOD,APOGEE,PERIGEE,DECAYED
56793.0,STARLINK-6052,PAYLOAD,2024-06-13 05:25:00,14.9833164,0.0003151,69.9988,144.1661,270.3826,89.6972,6.943e-05,7.36e-06,0.0,0 STARLINK-6052,1 56793U 23078AC  24165.22569541  .00000736  00000-0  69430-4 0  9994,2 56793  69.9988 144.1661 0003151 270.3826  89.6972 14.98331640 57903,6950.188,96.107,574.243,569.863,0.0
56793.0,STARLINK-6052,PAYLOAD,2024-06-13 08:37:16,14.98332922,0.0003131,69.9988,143.8293,270.3519,89.7281,8.1785e-05,8.83e-06,0.0,0 STARLINK-6052,1 56793U 23078AC  24165.35921412  .00000883  00000-0  81785-4 0  9997,2 56793  69.9988 143.8293 0003131 270.3519  89.7281 14.98332922 57668,6950.184,96.107,574.225,569.873,0.0
56793.0,STARLINK-6052,PAYLOAD,2024-06-13 23:02:28,14.98330131,0.0003095,69.9989,142.3144,270.4875,89.593,5.3453e-05,5.45e-06,0.0,0 STARLINK-6052,1 56793U 23078AC  24165.96005600  .00000545  00000-0  53453-4 0  9992,2 56793  69.9989 142.3144 0003095 270.4875  89.5930 14.98330131 57752,6950.192,96.107,574.209,569.906,0.0
56793.0,STARLINK-6052,PAYLOAD,2024-06-14 08:39:17,14.98332093,0.0003081,69.999,141.3047,270.1668,89.9138,5.4078e-05,5.52e-06,0.0,0 STARLINK-6052,1 56793U 23078AC  24166.36061453  .00000552  00000-0  54078-4 0  9997,2 56793  69.9990 141.3047 0003081 270.1668  89.9138 14.98332093 57817,6950.186,96.107,574.193,569.91,0.0
56793.0,STARLINK-6052,PAYLOAD,2024-06-14 23:04:29,14.98332599,0.000301,69.9992,139.7899,270.4973,89.5841,-1.1979e-05,-2.36e-06,0.0,0 STARLINK-6052,1 56793U 23078AC  24166.96145540 -.00000236  00000-0 -11979-4 0  9997,2 56793  69.9992 139.7899 0003010 270.4973  89.5841 14.98332599 57907,6950.185,96.107,574.142,569.958,0.0
56793.0,STARLINK-6052,PAYLOAD,2024-06-15 08:41:17,14.98334962,0.0002975,69.9992,138.7802,269.9431,90.1387,1.8868e-05,1.32e-06,0.0,0 STARLINK-6052,1 56793U 23078AC  24167.36201214  .00000132  00000-0  18868-4 0  9990,2 56793  69.9992 138.7802 0002975 269.9431  90.1387 14.98334962 57966,6950.178,96.107,574.11,569.975,0.0
56793.0,STARLINK-6052,PAYLOAD,2024-06-15 21:30:22,14.98331032,0.0002928,69.9993,137.434,268.2317,91.8506,4.102e-06,-4.4e-07,0.0,0 STARLINK-6052,1 56793U 23078AC  24167.89609396 -.00000044  00000-0  41020-5 0  9991,2 56793  69.9993 137.4340 0002928 268.2317  91.8506 14.98331032 58049,6950.19,96.107,574.09,570.02,0.0
56793.0,STARLINK-6052,PAYLOAD,2024-06-16 07:07:10,14.98332979,0.0002886,69.9993,136.4238,270.9008,89.182,2.9255e-05,2.56e-06,0.0,0 STARLINK-6052,1 56793U 23078AC  24168.29665183  .00000256  00000-0  29255-4 0  9991,2 56793  69.9993 136.4238 0002886 270.9008  89.1820 14.98332979 58101,6950.184,96.107,574.055,570.043,0.0
56793.0,STARLINK-6052,PAYLOAD,2024-06-16 21:32:23,14.98329364,0.00028,69.9994,134.9086,269.1137,90.9701,-2.082e-05,-3.41e-06,0.0,0 STARLINK-6052,1 56793U 23078AC  24168.89749496 -.00000341  00000-0 -20820-4 0  9993,2 56793  69.9994 134.9086 0002800 269.1137  90.9701 14.98329364 58196,6950.195,96.107,574.006,570.114,0.0
56793.0,STARLINK-6052,PAYLOAD,2024-06-17 15:09:52,14.98329327,0.0002876,69.9993,133.0569,268.9589,91.124,-1.5919e-05,-2.83e-06,0.0,0 STARLINK-6052,1 56793U 23078AC  24169.63185473 -.00000283  00000-0 -15919-4 0  9993,2 56793  69.9993 133.0569 0002876 268.9589  91.1240 14.98329327 58563,6950.195,96.107,574.059,570.061,0.0
56793.0,STARLINK-6052,PAYLOAD,2024-06-18 07:11:12,14.98331186,0.0002916,69.9992,131.3734,268.4678,91.6147,1.9519e-05,1.4e-06,0.0,0 STARLINK-6052,1 56793U 23078AC  24170.29945254  .00000140  00000-0  19519-4 0  9998,2 56793  69.9992 131.3734 0002916 268.4678  91.6147 14.98331186 58406,6950.189,96.107,574.081,570.028,0.0
56793.0,STARLINK-6052,PAYLOAD,2024-06-18 15:11:53,14.98328634,0.0002943,69.9992,130.5318,268.7331,91.3491,-1.3668e-05,-2.56e-06,0.0,0 STARLINK-6052,1 56793U 23078AC  24170.63325476 -.00000256  00000-0 -13668-4 0  9993,2 56793  69.9992 130.5318 0002943 268.7331  91.3491 14.98328634 58711,6950.197,96.107,574.108,570.017,0.0
56793.0,STARLINK-6052,PAYLOAD,2024-06-18 21:36:25,14.98325397,0.000295,69.9991,129.8585,268.3841,91.698,2.1411e-05,1.62e-06,0.0,0 STARLINK-6052,1 56793U 23078AC  24170.90029614  .00000162  00000-0  21411-4 0  9997,2 56793  69.9991 129.8585 0002950 268.3841  91.6980 14.98325397 58491,6950.207,96.107,574.122,570.022,0.0
56793.0,STARLINK-6052,PAYLOAD,2024-06-19 07:13:13,14.98328293,0.0002969,69.9992,128.8489,269.097,90.9849,1.8563e-05,1.28e-06,0.0,0 STARLINK-6052,1 56793U 23078AC  24171.30085525  .00000128  00000-0  18563-4 0  9991,2 56793  69.9992 128.8489 0002969 269.0970  90.9849 14.98328293 58556,6950.198,96.107,574.127,570.0,0.0
56793.0,STARLINK-6052,PAYLOAD,2024-06-19 21:38:25,14.98340328,0.0002995,69.9992,127.3341,269.4408,90.6408,0.00013446,1.512e-05,0.0,0 STARLINK-6052,1 56793U 23078AC  24171.90168261  .00001512  00000-0  13446-3 0  9998,2 56793  69.9992 127.3341 0002995 269.4408  90.6408 14.98340328 58647,6950.161,96.106,574.108,569.944,0.0
56793.0,STARLINK-6052,PAYLOAD,2024-06-20 04:02:56,14.98348572,0.0003007,69.9992,126.6609,269.627,90.4545,0.00018726,2.143e-05,0.0,0 STARLINK-6052,1 56793U 23078AC  24172.16871391  .00002143  00000-0  18726-3 0  9999,2 56793  69.9992 126.6609 0003007 269.6270  90.4545 14.98348572 58942,6950.135,96.106,574.09,569.911,0.0
56793.0,STARLINK-6052,PAYLOAD,2024-06-20 07:15:12,14.98351064,0.0002948,69.9992,126.324,269.6003,90.4818,0.00021264,2.446e-05,0.0,0 STARLINK-6052,1 56793U 23078AC  24172.30223015  .00002446  00000-0  21264-3 0  9996,2 56793  69.9992 126.3240 0002948 269.6003  90.4818 14.98351064 58704,6950.128,96.106,574.042,569.944,0.0
56793.0,STARLINK-6052,PAYLOAD,2024-06-20 21:40:26,14.98327055,0.0002523,70.0033,124.8111,269.7532,90.3338,6.8495e-05,7.24e-06,0.0,0 STARLINK-6052,1 56793U 23078AC  24172.90308752  .00000724  00000-0  68495-4 0  9999,2 56793  70.0033 124.8111 0002523 269.7532  90.3338 14.98327055 58798,6950.202,96.107,573.821,570.313,0.0
56793.0,STARLINK-6052,PAYLOAD,2024-06-20 23:16:34,14.98327398,0.0002832,69.9992,124.6408,270.6167,89.4668,2.7738e-06,-6e-07,0.0,0 STARLINK-6052,1 56793U 23078AC  24172.96984898 -.00000060  00000-0  27738-5 0  9996,2 56793  69.9992 124.6408 0002832 270.6167  89.4668 14.98327398 59060,6950.201,96.107,574.034,570.098,0.0
56793.0,STARLINK-6052,PAYLOAD,2024-06-21 05:41:07,14.98323465,0.0003191,69.999,123.9674,265.6509,94.4286,-5.0055e-05,-6.9e-06,0.0,0 STARLINK-6052,1 56793U 23078AC  24173.23689288 -.00000690  00000-0 -50055-4 0  9999,2 56793  69.9990 123.9674 0003191 265.6509  94.4286 14.98323465 58846,6950.213,96.107,574.296,569.86,0.0
56793.0,STARLINK-6052,PAYLOAD,2024-06-21 21:42:28,14.98331964,0.0003236,69.9986,122.2833,270.544,89.5348,-0.00022767,-2.809e-05,0.0,0 STARLINK-6052,1 56793U 23078AC  24173.90449444 -.00002809  00000-0 -22767-3 0  9993,2 56793  69.9986 122.2833 0003236 270.5440  89.5348 14.98331964 58947,6950.187,96.107,574.301,569.803,0.0
56793.0,STARLINK-6052,PAYLOAD,2024-06-22 04:07:00,14.98334257,0.0003071,69.9991,121.6106,269.8081,90.2727,-0.00017602,-2.193e-05,0.0,0 STARLINK-6052,1 56793U 23078AC  24174.17153129 -.00002193  00000-0 -17602-3 0  9993,2 56793  69.9991 121.6106 0003071 269.8081  90.2727 14.98334257 59240,6950.18,96.107,574.179,569.91,0.0
56793.0,STARLINK-6052,PAYLOAD,2024-06-22 07:19:16,14.98333347,0.0002891,69.9996,121.2748,266.1996,93.8833,-0.00017112,-2.134e-05,0.0,0 STARLINK-6052,1 56793U 23078AC  24174.30505141 -.00002134  00000-0 -17112-3 0  9994,2 56793  69.9996 121.2748 0002891 266.1996  93.8833 14.98333347 59007,6950.183,96.107,574.057,570.038,0.0
56793.0,STARLINK-6052,PAYLOAD,2024-06-22 21:44:27,14.98332221,0.0003312,69.9998,119.7596,273.9811,86.0969,0.00022515,2.595e-05,0.0,0 STARLINK-6052,1 56793U 23078AC  24174.90587845  .00002595  00000-0  22515-3 0  9993,2 56793  69.9998 119.7596 0003312 273.9811  86.0969 14.98332221 59096,6950.186,96.107,574.353,569.749,0.0
56793.0,STARLINK-6052,PAYLOAD,2024-06-23 04:08:59,14.98339634,0.0002846,69.9998,119.0866,261.1398,98.9439,0.00028241,3.279e-05,0.0,0 STARLINK-6052,1 56793U 23078AC  24175.17291067  .00003279  00000-0  28241-3 0  9993,2 56793  69.9998 119.0866 0002846 261.1398  98.9439 14.98339634 59391,6950.163,96.106,574.006,570.05,0.0
56793.0,STARLINK-6052,PAYLOAD,2024-06-23 05:45:07,14.98341571,0.0002956,69.9996,118.9179,266.424,93.6581,0.00029082,3.38e-05,0.0,0 STARLINK-6052,1 56793U 23078AC  24175.23966898  .00003380  00000-0  29082-3 0  9998,2 56793  69.9996 118.9179 0002956 266.4240  93.6581 14.98341571 59146,6950.157,96.106,574.077,569.968,0.0
56793.0,STARLINK-6052,PAYLOAD,2024-06-23 21:46:29,14.98325511,0.0002961,70.0,117.2357,264.9959,95.0862,2.0822e-05,1.55e-06,0.0,0 STARLINK-6052,1 56793U 23078AC  24175.90728680  .00000155  00000-0  20822-4 0  9998,2 56793  70.0000 117.2357 0002961 264.9959  95.0862 14.98325511 59246,6950.207,96.107,574.13,570.014,0.0
56793.0,STARLINK-6052,PAYLOAD,2024-06-24 04:11:02,14.98323023,0.000313,69.9994,116.5617,266.5082,93.5719,-2.387e-05,-3.78e-06,0.0,0 STARLINK-6052,1 56793U 23078AC  24176.17433009 -.00000378  00000-0 -23870-4 0  9991,2 56793  69.9994 116.5617 0003130 266.5082  93.5719 14.98323023 59543,6950.214,96.107,574.255,569.904,0.0
56793.0,STARLINK-6052,PAYLOAD,2024-06-24 05:47:10,14.98324865,0.0003057,69.9996,116.3931,279.3489,80.7325,-5.7732e-07,-1e-06,0.0,0 STARLINK-6052,1 56793U 23078AC  24176.24108940 -.00000100  00000-0 -57732-6 0  9991,2 56793  69.9996 116.3931 0003057 279.3489  80.7325 14.98324865 59291,6950.209,96.107,574.198,569.949,0.0
56793.0,STARLINK-6052,PAYLOAD,2024-06-24 21:48:30,14.98332266,0.0003082,69.9994,114.7101,264.2908,95.7899,-0.00022383,-2.763e-05,0.0,0 STARLINK-6052,1 56793U 23078AC  24176.90868957 -.00002763  00000-0 -22383-3 0  9993,2 56793  69.9994 114.7101 0003082 264.2908  95.7899 14.98332266 59394,6950.186,96.107,574.193,569.909,0.0
